CTC1_L_00172016-03
1 31546U 24794NH  26070.40833333  .00000000  00000+0  00000-0 0  9996
2 31546  50.0000 180.0000 0000000   0.0000   0.0000 13.89609395    19
CTC1_L_00172016-04
1 31547U 24659BL  26070.40833333  .00000000  00000+0  00000-0 0  9997
2 31547  50.0000 180.0000 0000000   0.0000  90.0000 13.89609395    19
CTC1_L_00172017-01
1 31548U 25572AN  26070.40833333  .00000000  00000+0  00000-0 0  9993
2 31548  50.0000 192.0000 0000000   0.0000 192.0000 13.89609395    16
CTC1_L_00172017-02
1 31549U 26706KO  26070.40833333  .00000000  00000+0  00000-0 0  9994
2 31549  50.0000 192.0000 0000000   0.0000 282.0000 13.89609395    17
CTC1_L_00172017-03
1 31550U 25440NQ  26070.40833333  .00000000  00000+0  00000-0 0  9990
2 31550  50.0000 192.0000 0000000   0.0000  12.0000 13.89609395    10
CTC1_L_00172017-04
1 31551U 23125KQ  26070.40833333  .00000000  00000+0  00000-0 0  9999
2 31551  50.0000 192.0000 0000000   0.0000 102.0000 13.89609395    11
CTC1_L_00172018-01
1 31552U 22944QT  26070.40833333  .00000000  00000+0  00000-0 0  9998
2 31552  50.0000 204.0000 0000000   0.0000 204.0000 13.89609395    19
CTC1_L_00172018-02
1 31553U 22081MR  26070.40833333  .00000000  00000+0  00000-0 0  9991
2 31553  50.0000 204.0000 0000000   0.0000 294.0000 13.89609395    19
CTC1_L_00172018-03
1 31554U 25605UX  26070.40833333  .00000000  00000+0  00000-0 0  9997
2 31554  50.0000 204.0000 0000000   0.0000  24.0000 13.89609395    11
CTC1_L_00172018-04
1 31555U 22024NU  26070.40833333  .00000000  00000+0  00000-0 0  9990
2 31555  50.0000 204.0000 0000000   0.0000 114.0000 13.89609395    12
CTC1_L_00172019-01
1 31556U 25611GS  26070.40833333  .00000000  00000+0  00000-0 0  9996
2 31556  50.0000 216.0000 0000000   0.0000 216.0000 13.89609395    19
CTC1_L_00172019-02
1 31557U 22160HY  26070.40833333  .00000000  00000+0  00000-0 0  9993
2 31557  50.0000 216.0000 0000000   0.0000 306.0000 13.89609395    10
CTC1_L_00172019-03
1 31558U 25069QG  26070.40833333  .00000000  00000+0  00000-0 0  9995
2 31558  50.0000 216.0000 0000000   0.0000  36.0000 13.89609395    11
CTC1_L_00172019-04
1 31559U 24643GT  26070.40833333  .00000000  00000+0  00000-0 0  9993
2 31559  50.0000 216.0000 0000000   0.0000 126.0000 13.89609395    12
CTC1_L_00172020-01
1 31560U 25350NX  26070.40833333  .00000000  00000+0  00000-0 0  9991
2 31560  50.0000 228.0000 0000000   0.0000 228.0000 13.89609395    10
CTC1_L_00172020-02
1 31561U 25108KM  26070.40833333  .00000000  00000+0  00000-0 0  9993
2 31561  50.0000 228.0000 0000000   0.0000 318.0000 13.89609395    11
CTC1_L_00172020-03
1 31562U 23779BX  26070.40833333  .00000000  00000+0  00000-0 0  9996
2 31562  50.0000 228.0000 0000000   0.0000  48.0000 13.89609395    12
CTC1_L_00172020-04
1 31563U 23808RW  26070.40833333  .00000000  00000+0  00000-0 0  9990
2 31563  50.0000 228.0000 0000000   0.0000 138.0000 13.89609395    13
CTC1_L_00172021-01
1 31564U 23298OW  26070.40833333  .00000000  00000+0  00000-0 0  9994
2 31564  50.0000 240.0000 0000000   0.0000 240.0000 13.89609395    12
CTC1_L_00172021-02
1 31565U 23868IH  26070.40833333  .00000000  00000+0  00000-0 0  9998
2 31565  50.0000 240.0000 0000000   0.0000 330.0000 13.89609395    13
CTC1_L_00172021-03
1 31566U 25922JF  26070.40833333  .00000000  00000+0  00000-0 0  9992
2 31566  50.0000 240.0000 0000000   0.0000  60.0000 13.89609395    14
CTC1_L_00172021-04
1 31567U 25492RJ  26070.40833333  .00000000  00000+0  00000-0 0  9995
2 31567  50.0000 240.0000 0000000   0.0000 150.0000 13.89609395    15
CTC1_L_00172022-01
1 31568U 26436ZC  26070.40833333  .00000000  00000+0  00000-0 0  9995
2 31568  50.0000 252.0000 0000000   0.0000 252.0000 13.89609395    12
CTC1_L_00172022-02
1 31569U 25234IY  26070.40833333  .00000000  00000+0  00000-0 0  9991
2 31569  50.0000 252.0000 0000000   0.0000 342.0000 13.89609395    13
CTC1_L_00172022-03
1 31570U 26245MT  26070.40833333  .00000000  00000+0  00000-0 0  9996
2 31570  50.0000 252.0000 0000000   0.0000  72.0000 13.89609395    15
CTC1_L_00172022-04
1 31571U 22674AB  26070.40833333  .00000000  00000+0  00000-0 0  9999
2 31571  50.0000 252.0000 0000000   0.0000 162.0000 13.89609395    16
CTC1_L_00172023-01
1 31572U 26777XR  26070.40833333  .00000000  00000+0  00000-0 0  9998
2 31572  50.0000 264.0000 0000000   0.0000 264.0000 13.89609395    13
CTC1_L_00172023-02
1 31573U 25123SB  26070.40833333  .00000000  00000+0  00000-0 0  9993
2 31573  50.0000 264.0000 0000000   0.0000 354.0000 13.89609395    14
CTC1_L_00172023-03
1 31574U 22657MU  26070.40833333  .00000000  00000+0  00000-0 0  9993
2 31574  50.0000 264.0000 0000000   0.0000  84.0000 13.89609395    15
CTC1_L_00172023-04
1 31575U 26169HC  26070.40833333  .00000000  00000+0  00000-0 0  9996
2 31575  50.0000 264.0000 0000000   0.0000 174.0000 13.89609395    16
CTC1_L_00172024-01
1 31576U 23260LN  26070.40833333  .00000000  00000+0  00000-0 0  9996
2 31576  50.0000 276.0000 0000000   0.0000 276.0000 13.89609395    13
CTC1_L_00172024-02
1 31577U 22269DA  26070.40833333  .00000000  00000+0  00000-0 0  9995
2 31577  50.0000 276.0000 0000000   0.0000   6.0000 13.89609395    15
CTC1_L_00172024-03
1 31578U 22490EF  26070.40833333  .00000000  00000+0  00000-0 0  9992
2 31578  50.0000 276.0000 0000000   0.0000  96.0000 13.89609395    15
CTC1_L_00172024-04
1 31579U 22990EW  26070.40833333  .00000000  00000+0  00000-0 0  9998
2 31579  50.0000 276.0000 0000000   0.0000 186.0000 13.89609395    16
CTC1_L_00172025-01
1 31580U 23770VZ  26070.40833333  .00000000  00000+0  00000-0 0  9997
2 31580  50.0000 288.0000 0000000   0.0000 288.0000 13.89609395    14
CTC1_L_00172025-02
1 31581U 23862MZ  26070.40833333  .00000000  00000+0  00000-0 0  9990
2 31581  50.0000 288.0000 0000000   0.0000  18.0000 13.89609395    16
CTC1_L_00172025-03
1 31582U 26077AU  26070.40833333  .00000000  00000+0  00000-0 0  9992
2 31582  50.0000 288.0000 0000000   0.0000 108.0000 13.89609395    17
CTC1_L_00172025-04
1 31583U 22774AF  26070.40833333  .00000000  00000+0  00000-0 0  9993
2 31583  50.0000 288.0000 0000000   0.0000 198.0000 13.89609395    17
CTC1_L_00172026-01
1 31584U 24661KS  26070.40833333  .00000000  00000+0  00000-0 0  9991
2 31584  50.0000 300.0000 0000000   0.0000 300.0000 13.89609395    18
CTC1_L_00172026-02
1 31585U 24389WO  26070.40833333  .00000000  00000+0  00000-0 0  9999
2 31585  50.0000 300.0000 0000000   0.0000  30.0000 13.89609395    19
CTC1_L_00172026-03
1 31586U 25485AF  26070.40833333  .00000000  00000+0  00000-0 0  9998
2 31586  50.0000 300.0000 0000000   0.0000 120.0000 13.89609395    10
CTC1_L_00172026-04
1 31587U 23238UA  26070.40833333  .00000000  00000+0  00000-0 0  9993
2 31587  50.0000 300.0000 0000000   0.0000 210.0000 13.89609395    11
CTC1_L_00172027-01
1 31588U 26520DR  26070.40833333  .00000000  00000+0  00000-0 0  9991
2 31588  50.0000 312.0000 0000000   0.0000 312.0000 13.89609395    18
CTC1_L_00172027-02
1 31589U 25152LF  26070.40833333  .00000000  00000+0  00000-0 0  9992
2 31589  50.0000 312.0000 0000000   0.0000  42.0000 13.89609395    19
CTC1_L_00172027-03
1 31590U 26844IO  26070.40833333  .00000000  00000+0  00000-0 0  9993
2 31590  50.0000 312.0000 0000000   0.0000 132.0000 13.89609395    11
CTC1_L_00172027-04
1 31591U 22778OP  26070.40833333  .00000000  00000+0  00000-0 0  9996
2 31591  50.0000 312.0000 0000000   0.0000 222.0000 13.89609395    12
CTC1_L_00172028-01
1 31592U 26626SW  26070.40833333  .00000000  00000+0  00000-0 0  9993
2 31592  50.0000 324.0000 0000000   0.0000 324.0000 13.89609395    19
CTC1_L_00172028-02
1 31593U 25544TB  26070.40833333  .00000000  00000+0  00000-0 0  9992
2 31593  50.0000 324.0000 0000000   0.0000  54.0000 13.89609395    10
CTC1_L_00172028-03
1 31594U 26958NK  26070.40833333  .00000000  00000+0  00000-0 0  9993
2 31594  50.0000 324.0000 0000000   0.0000 144.0000 13.89609395    11
CTC1_L_00172028-04
1 31595U 23581MR  26070.40833333  .00000000  00000+0  00000-0 0  9993
2 31595  50.0000 324.0000 0000000   0.0000 234.0000 13.89609395    12
CTC1_L_00172029-01
1 31596U 26563WE  26070.40833333  .00000000  00000+0  00000-0 0  9997
2 31596  50.0000 336.0000 0000000   0.0000 336.0000 13.89609395    19
CTC1_L_00172029-02
1 31597U 23566RH  26070.40833333  .00000000  00000+0  00000-0 0  9998
2 31597  50.0000 336.0000 0000000   0.0000  66.0000 13.89609395    10
CTC1_L_00172029-03
1 31598U 22566JF  26070.40833333  .00000000  00000+0  00000-0 0  9998
2 31598  50.0000 336.0000 0000000   0.0000 156.0000 13.89609395    11
CTC1_L_00172029-04
1 31599U 24596CW  26070.40833333  .00000000  00000+0  00000-0 0  9994
2 31599  50.0000 336.0000 0000000   0.0000 246.0000 13.89609395    12
CTC1_L_00172030-01
1 31600U 25191DD  26070.40833333  .00000000  00000+0  00000-0 0  9999
2 31600  50.0000 348.0000 0000000   0.0000 348.0000 13.89609395    11
CTC1_L_00172030-02
1 31601U 24472T   26070.40833333  .00000000  00000+0  00000-0 0  9991
2 31601  50.0000 348.0000 0000000   0.0000  78.0000 13.89609395    12
CTC1_L_00172030-03
1 31602U 22242ML  26070.40833333  .00000000  00000+0  00000-0 0  9995
2 31602  50.0000 348.0000 0000000   0.0000 168.0000 13.89609395    13
CTC1_L_00172030-04
1 31603U 25529VU  26070.40833333  .00000000  00000+0  00000-0 0  9997
2 31603  50.0000 348.0000 0000000   0.0000 258.0000 13.89609395    14
